#aV2021  1 30  0  0  0.00000000     288 DD+AD WGS84 FIT  NGA
## 2142 518400.00000000   300.00000000 59244 0.0000000000000
+   32     1  2  3  4  5  6  7  8  9 10 11 12 13 14 15 16 17
+         18 19 20 21 22 23 24 25 26 27 28 29 30 31 32  0  0
+          0  0  0  0  0  0  0  0  0  0  0  0  0  0  0  0  0
+          0  0  0  0  0  0  0  0  0  0  0  0  0  0  0  0  0
+          0  0  0  0  0  0  0  0  0  0  0  0  0  0  0  0  0
++         2  2  2  2  2  2  2  2  2  2  2  2  2  2  2  2  2
++         2  2  2  2  2  2  2  2  2  2  2  2  2  2  2  0  0
++         0  0  0  0  0  0  0  0  0  0  0  0  0  0  0  0  0
++         0  0  0  0  0  0  0  0  0  0  0  0  0  0  0  0  0
++         0  0  0  0  0  0  0  0  0  0  0  0  0  0  0  0  0
%c cc cc ccc ccc cccc cccc cccc cccc ccccc ccccc ccccc ccccc
%c cc cc ccc ccc cccc cccc cccc cccc ccccc ccccc ccccc ccccc
%f  0.0000000  0.000000000  0.00000000000  0.000000000000000
%f  0.0000000  0.000000000  0.00000000000  0.000000000000000
%i    0    0    0    0      0      0      0      0         0
%i    0    0    0    0      0      0      0      0         0
/*      NGA, ST. LOUIS,MO.                                  
/*   EPHEMERIS COMPUTED FROM 2 DAYS OF DATA                 
/*   EPOCHA v5 SMOOTHER                                     
/*   G2139 IERS2010 SATAF SATAPC                            
*  2021  1 30 15 50  0.00000000
P  1 -21999.766488 -13999.347551   5681.345012    770.880307                    
V  1  -4449.712638  -6234.663426 -30935.827588     -0.071394                    
P  2   9366.233826  20070.779260  15304.883934   -571.623533                    
V  2 -15846.311614  -9302.839191  22914.504024     -0.040579                    
P  3 -13646.655053  -7442.550992  21469.360526    -69.877881                    
V  3   5349.645658 -26887.022078  -5797.311180     -0.099832                    
P  4 -21953.565480  -3634.732262  14541.936309   -176.663367                    
V  4  16924.549236  -7611.985580  23602.119739     -0.027973                    
P  5   4634.985423  23556.485740 -11311.236941    -32.363932                    
V  5  -4681.512241  13675.669414  27101.841689     -0.010071                    
P  6  -4041.136977  15298.419642  21388.801460     -3.983451                    
V  6 -20905.041339 -17023.098722   8298.899073      0.006659                    
P  7 -20201.145709  -1346.105485 -17104.274809     40.902391                    
V  7 -15693.505119 -15807.377427  18922.189568      0.138666                    
P  8 -16549.709862  -7938.594725 -19299.695850     -8.484962                    
V  8  22448.851689  -9610.307849 -15001.702768     -0.013598                    
P  9 -25432.509136   6448.687061   4136.757640   -318.081333                    
V  9   3934.297597  -4683.002243  30991.852766     -0.037935                    
P 10  11653.175545 -20786.700255 -11336.999992    -50.688622                    
V 10   -194.656525  14841.058199 -27415.567375     -0.083182                    
P 11 -22162.363966 -11775.427422  -8584.382036    -38.523778                    
V 11  11133.133795  -1708.262470 -28230.257427      0.106223                    
P 12  11123.593970  12425.537498  20462.605465      5.776946                    
V 12  -7355.655349  25429.988095 -11159.419315     -0.052586                    
P 13   5801.085264  14139.119484 -21867.529334     91.634118                    
V 13 -26741.879616   6004.606137  -3113.144952      0.042126                    
P 14 -13469.027265  19116.463491 -12597.600856     92.375806                    
V 14   1288.668242 -16109.335369 -25847.962654      0.042038                    
P 15  18018.562210   6794.407823 -18788.039429   -172.787804                    
V 15 -20059.640630  11608.360694 -14971.110277      0.025836                    
P 16   -857.319238 -24137.153596 -10728.639376   -272.736090                    
V 16   5842.835799 -12301.313548  28268.004724     -0.056243                    
P 17 -18823.685802  14247.755622  12591.514478    386.834857                    
V 17 -15110.878919   2722.750316 -26597.149392      0.048237                    
P 18  18305.077497  -1489.435168 -19211.745912    344.655058                    
V 18  17394.369833  17086.804249  15195.066534      0.022414                    
P 19 -12536.398575  15132.818902  17543.347120    -45.046904                    
V 19 -22512.846705   4020.922471 -19333.949415      0.050124                    
P 20  14787.611847 -10126.369160 -19576.075696    524.925313                    
V 20    608.314051  24943.925768 -12748.513182     -0.001812                    
P 21 -20938.628449 -16570.119147  -1419.620054     91.334133                    
V 21   3720.999357   -572.373302 -31305.074978      0.032885                    
P 22 -11772.908739 -16205.513794  17719.306304   -688.765752                    
V 22   3802.350128 -21894.461785 -17526.710881      0.070723                    
P 23  14994.708737 -11270.728810 -18812.043037    117.669396                    
V 23  -2289.846149  23776.131384 -16126.079766      0.008390                    
P 24  21718.820124  15645.163560    438.495362      2.992334                    
V 24  -1289.717115   3146.772219 -30912.112050     -0.004906                    
P 25  15480.852543  -3318.150893  21027.633515     70.415650                    
V 25  -4088.401937  27043.851334   7462.409497      0.077560                    
P 26   4277.487329 -26051.698183    847.813148     37.637123                    
V 26   3403.412560   1633.992357  31513.696244      0.055927                    
P 27  -3091.284592 -14698.536660 -22039.546994    -66.496496                    
V 27  26079.515625  -9002.293901   2716.270304     -0.075847                    
P 28 -12444.447620  21498.830082  -9091.466275    622.544674                    
V 28   1237.711180 -12402.345527 -29039.820162     -0.052990                    
P 29  25858.614313  -4047.331714   4607.025147   -285.647660                    
V 29  -5128.267884   3488.213942  31544.625744     -0.072141                    
P 30 -12458.825979   9828.459234 -21268.140348   -377.101011                    
V 30 -20055.854364 -18358.562321   3036.857629     -0.059132                    
P 31   2314.540527 -16968.422664  20100.351098    -97.072542                    
V 31  20160.056608  16222.362335  11788.347118     -0.023173                    
P 32  17264.271023 -15743.190107  12564.875736     16.787536                    
V 32  15765.504780  -3123.946192 -25930.577829      0.016467                    
EOF
